CS2                     
1 49262U 21088C   26068.73485932  .00018033  00000+0  56178-3 0  9999
2 49262  97.3928 134.2907 0011637  82.3491 277.9072 15.33255930245263
STARLINK-32003          
1 60097U 24117G   26068.20231302  .00000133  00000+0  16603-4 0  9998
2 60097  53.1616  39.2575 0001073  72.3058 287.8060 15.30193830 96811
